LUCH-5A                 
1 37951U 11074B   26156.61822944 -.00000038  00000+0  00000+0 0  9994
2 37951   8.7242  73.9780 0002450  10.4653 199.1840  1.00269901 52933
BEIDOU-2 G5             
1 38091U 12008A   26157.14525177  .00000070  00000+0  00000+0 0  9990
2 38091   3.5460  69.7645 0009564 276.3813  19.4125  1.00269769 52258
BEIDOU-2 M3             
1 38250U 12018A   26155.83864758 -.00000057  00000+0  00000+0 0  9999
2 38250  55.7694 305.2913 0019927 274.9392  84.8190  1.86230159 95710
BEIDOU-2 M4             
1 38251U 12018B   26155.77093162 -.00000057  00000+0  00000+0 0  9996
2 38251  55.6694 304.5088 0011176 276.7033  83.1552  1.86229610 95719
BEIDOU-2 M6             
1 38775U 12050B   26156.01768472 -.00000039  00000+0  00000+0 0  9994
2 38775  56.5339  63.2969 0013929 355.3451   4.6688  1.86231028 93081
NAVSTAR 67 (USA 239)    
1 38833U 12053A   26156.35062184  .00000076  00000+0  00000+0 0  9996
2 38833  53.5837 144.0842 0179641  65.5892 296.2644  2.00567345 99209
GSAT0103 (GALILEO-FM3)  
1 38857U 12055A   26156.15727767  .00000018  00000+0  00000+0 0  9993
2 38857  55.7989 101.8756 0005166 302.6849  57.2312  1.70473498 84807
BEIDOU-2 G6             
1 38953U 12059A   26156.86496485 -.00000163  00000+0  00000+0 0  9994
2 38953   4.3922  73.6449 0010153 324.2775 251.7272  1.00275005 49798
COSMOS 2485 [GLONASS-M] 
1 39155U 13019A   26156.17851194 -.00000007  00000+0  00000+0 0  9999
2 39155  65.4134  74.0071 0023502 235.0569 124.7432  2.13103447102022
NAVSTAR 68 (USA 242)    
1 39166U 13023A   26156.21726920 -.00000027  00000+0  00000+0 0  9991
2 39166  54.5137 269.4614 0141622  50.9838 310.2894  2.00563607 95643
IRNSS-1A                
1 39199U 13034A   26142.85947303  .00000059  00000+0  00000+0 0  9998
2 39199  35.6649  64.2334 0016618 185.3754 355.4646  1.00280263 47111
NAVSTAR 69 (USA 248)    
1 39533U 14008A   26156.71736090  .00000083  00000+0  00000+0 0  9998
2 39533  53.6528 149.7875 0084233 231.0870 128.1589  2.00559113 89452
ASTRA 5B                
1 39617U 14011B   26156.56786412  .00000150  00000+0  00000+0 0  9996
2 39617   0.0610 313.5997 0002232 114.6619  53.6974  1.00273378 44552
COSMOS 2492 [GLONASS-M] 
1 39620U 14012A   26156.60665834 -.00000031  00000+0  00000+0 0  9999
2 39620  65.3049 314.3293 0010560 326.8783  33.0498  2.13103514 94991
IRNSS-1B                
1 39635U 14017A   26139.86086405  .00000103  00000+0  00000+0 0  9999
2 39635  28.9733 240.8911 0024226 185.2284 176.5740  1.00280229 44519
NAVSTAR 70 (USA 251)    
1 39741U 14026A   26155.99560656 -.00000066  00000+0  00000+0 0  9993
2 39741  56.5044 331.9921 0038274 326.7584  33.0058  2.00561982 88296
COSMOS 2500 [GLONASS-M] 
1 40001U 14032A   26156.30730628 -.00000032  00000+0  00000+0 0  9998
2 40001  65.2399 314.0875 0006921 182.6987 177.2913  2.13106228 93207
NAVSTAR 71 (USA 256)    
1 40105U 14045A   26156.58582858  .00000006  00000+0  00000+0 0  9997
2 40105  55.3460  88.9272 0032841 118.4134 241.9101  2.00557709 85849
GSAT0201 (GALILEO 5)    
1 40128U 14050A   26153.86432925 -.00000050  00000+0  00000+0 0  9995
2 40128  48.8915 274.0236 1672406 178.8372 181.6513  1.85520153 78053
GSAT0202 (GALILEO 6)    
1 40129U 14050B   26156.27585053 -.00000046  00000+0  00000+0 0  9990
2 40129  48.9055 273.0103 1673977 179.6564 180.5217  1.85520793 80263
IRNSS-1C                
1 40269U 14061A   26156.86949132 -.00000149  00000+0  00000+0 0  9998
2 40269   6.4898  89.1421 0022585   1.1724 200.0255  1.00271117 42572
NAVSTAR 72 (USA 258)    
1 40294U 14068A   26155.95813785 -.00000069  00000+0  00000+0 0  9997
2 40294  56.9793  31.4259 0066742  70.1188 290.6558  2.00575574 84961
COSMOS 2501 [GLONASS-K] 
1 40315U 14075A   26156.09998656  .00000070  00000+0  00000+0 0  9997
2 40315  63.6155 190.7905 0022434 212.0821 147.8495  2.13101471 89592
NAVSTAR 73 (USA 260)    
1 40534U 15013A   26156.09596329  .00000046  00000+0  00000+0 0  9997
2 40534  53.1687 204.6778 0109301  40.1042 320.7783  2.00552074 81584
GSAT0203 (GALILEO 7)    
1 40544U 15017A   26156.48117556 -.00000068  00000+0  00000+0 0  9991
2 40544  56.7910 341.9146 0002094 282.9852  77.0035  1.70476258 69003
GSAT0204 (GALILEO 8)    
1 40545U 15017B   26156.15035755 -.00000069  00000+0  00000+0 0  9997
2 40545  56.7982 341.9422 0001822 253.1460 106.8459  1.70475724 32045
