OBJECT_NAME,OBJECT_ID,EPOCH,MEAN_MOTION,ECCENTRICITY,INCLINATION,RA_OF_ASC_NODE,ARG_OF_PERICENTER,MEAN_ANOMALY,EPHEMERIS_TYPE,CLASSIFICATION_TYPE,NORAD_CAT_ID,ELEMENT_SET_NO,REV_AT_EPOCH,BSTAR,MEAN_MOTION_DOT,MEAN_MOTION_DDOT
LUCH 5A (SDCM/PRN 140),2011-074B,2026-06-05T14:50:15.023616,1.00269901,.00024505,8.7242,73.9780,10.4653,199.1840,0,U,37951,999,5293,0,-.38E-6,0
BEIDOU-2 G5 (C05),2012-008A,2026-06-06T03:29:09.752928,1.00269769,.0009564,3.5460,69.7645,276.3813,19.4125,0,U,38091,999,5225,0,.7E-6,0
BEIDOU-2 M3 (C11),2012-018A,2026-06-04T20:07:39.150912,1.86230159,.00199271,55.7694,305.2913,274.9392,84.8190,0,U,38250,999,9571,0,-.57E-6,0
BEIDOU-2 M4 (C12),2012-018B,2026-06-04T18:30:08.491968,1.86229610,.00111764,55.6694,304.5088,276.7033,83.1552,0,U,38251,999,9571,0,-.57E-6,0
BEIDOU-2 M6 (C14),2012-050B,2026-06-05T00:25:27.959808,1.86231028,.0013929,56.5339,63.2969,355.3451,4.6688,0,U,38775,999,9308,0,-.39E-6,0
GPS BIIF-3  (PRN 24),2012-053A,2026-06-05T08:24:53.726976,2.00567345,.01796417,53.5837,144.0842,65.5892,296.2644,0,U,38833,999,9920,0,.76E-6,0
GSAT0103 (GALILEO-FM3),2012-055A,2026-06-05T03:46:28.790688,1.70473498,.00051664,55.7989,101.8756,302.6849,57.2312,0,U,38857,999,8480,0,.18E-6,0
BEIDOU-2 G6 (C02),2012-059A,2026-06-05T20:45:32.963040,1.00275005,.0010154,4.3922,73.6449,324.2775,251.7272,0,U,38953,999,4979,0,-.163E-5,0
COSMOS 2485 (747),2013-019A,2026-06-05T04:17:03.431616,2.13103447,.00235024,65.4134,74.0071,235.0569,124.7432,0,U,39155,999,10202,0,-.7E-7,0
GPS BIIF-4  (PRN 27),2013-023A,2026-06-05T05:12:52.058880,2.00563607,.01416227,54.5137,269.4614,50.9838,310.2894,0,U,39166,999,9564,0,-.27E-6,0
IRNSS-1A,2013-034A,2026-05-22T20:37:38.469792,1.00280263,.00166187,35.6649,64.2334,185.3754,355.4646,0,U,39199,999,4711,0,.59E-6,0
GPS BIIF-5  (PRN 30),2014-008A,2026-06-05T17:12:59.980896,2.00559113,.0084234,53.6528,149.7875,231.0870,128.1589,0,U,39533,999,8945,0,.83E-6,0
ASTRA 5B (EGNOS/PRN 123),2014-011B,2026-06-05T13:37:43.459968,1.00273378,.00022324,0.0610,313.5997,114.6619,53.6974,0,U,39617,999,4455,0,.15E-5,0
COSMOS 2492 (754),2014-012A,2026-06-05T14:33:35.280576,2.13103514,.00105609,65.3049,314.3293,326.8783,33.0498,0,U,39620,999,9499,0,-.31E-6,0
IRNSS-1B,2014-017A,2026-05-19T20:39:38.653920,1.00280229,.00242269,28.9733,240.8911,185.2284,176.5740,0,U,39635,999,4451,0,.103E-5,0
GPS BIIF-6  (PRN 06),2014-026A,2026-06-04T23:53:40.406784,2.00561982,.00382743,56.5044,331.9921,326.7584,33.0058,0,U,39741,999,8829,0,-.66E-6,0
COSMOS 2500 (755),2014-032A,2026-06-05T07:22:31.262592,2.13106228,.00069216,65.2399,314.0875,182.6987,177.2913,0,U,40001,999,9320,0,-.32E-6,0
GPS BIIF-7  (PRN 09),2014-045A,2026-06-05T14:03:35.589312,2.00557709,.00328418,55.3460,88.9272,118.4134,241.9101,0,U,40105,999,8584,0,.6E-7,0
GSAT0201 (GALILEO 5),2014-050A,2026-06-02T20:44:38.047200,1.85520153,.16724063,48.8915,274.0236,178.8372,181.6513,0,U,40128,999,7805,0,-.5E-6,0
GSAT0202 (GALILEO 6),2014-050B,2026-06-05T06:37:13.485792,1.85520793,.1673977,48.9055,273.0103,179.6564,180.5217,0,U,40129,999,8026,0,-.46E-6,0
IRNSS-1C,2014-061A,2026-06-05T20:52:04.050048,1.00271117,.0022585,6.4898,89.1421,1.1724,200.0255,0,U,40269,999,4257,0,-.149E-5,0
GPS BIIF-8  (PRN 03),2014-068A,2026-06-04T22:59:43.110240,2.00575574,.00667425,56.9793,31.4259,70.1188,290.6558,0,U,40294,999,8496,0,-.69E-6,0
COSMOS 2501 (702K),2014-075A,2026-06-05T02:23:58.838784,2.13101471,.00224347,63.6155,190.7905,212.0821,147.8495,0,U,40315,999,8959,0,.7E-6,0
GPS BIIF-9  (PRN 26),2015-013A,2026-06-05T02:18:11.228256,2.00552074,.01093013,53.1687,204.6778,40.1042,320.7783,0,U,40534,999,8158,0,.46E-6,0
GSAT0203 (GALILEO 7),2015-017A,2026-06-05T11:32:53.568384,1.70476258,.00020943,56.7910,341.9146,282.9852,77.0035,0,U,40544,999,6900,0,-.68E-6,0
GSAT0204 (GALILEO 8),2015-017B,2026-06-05T03:36:30.892320,1.70475724,.0001822,56.7982,341.9422,253.1460,106.8459,0,U,40545,999,3204,0,-.69E-6,0
